ES'HAIL 2               
1 43700U 18090A   23354.53243990  .00000153  00000+0  00000+0 0  9991
2 43700   0.0178  20.2727 0002004 283.3427   2.7109  1.00270332 18553
FOX-1CLIFF (AO-95)      
1 43770U 18099N   23354.07715034  .00007528  00000+0  57024-3 0  9994
2 43770  97.5744  50.9764 0012628 252.3878 107.5968 15.02500918275498
ITASAT                  
1 43786U 18099AE  23354.15256372  .00005441  00000+0  42297-3 0  9993
2 43786  97.5434  51.6171 0017183 230.2495 129.7217 15.01585073275534
JY1SAT (JO-97)          
1 43803U 18099AX  23354.10058775  .00007787  00000+0  57196-3 0  9994
2 43803  97.5498  52.0444 0010547 188.1549 171.9507 15.03672242275606
UWE-4                   
1 43880U 18111E   23354.29334525  .00011076  00000+0  77481-3 0  9999
2 43880  97.6220 256.7967 0016232 262.3759  97.5624 15.05346233272333
JAISAT-1                
1 44419U 19038F   23354.51615710  .00060676  00000+0  13006-2 0  9992
2 44419  97.6844 344.3030 0011845  12.1595 347.9937 15.44471019247147
DUCHIFAT-3              
1 44854U 19089C   23354.51339374  .00013268  00000+0  79393-3 0  9997
2 44854  36.9607  54.4648 0006891  59.2371 300.9052 15.10430437221046
TIANYAN 01              
1 44881U 19093C   23354.54613549  .00001513  00000+0  19203-3 0  9998
2 44881  97.8476  69.7375 0014425 184.8251 175.2826 14.83088506216418
RS-44 & BREEZE-KM R/B   
1 44909U 19096E   23354.13897347  .00000008  00000+0 -20682-4 0  9990
2 44909  82.5212 224.3794 0218372 112.1153 250.3287 12.79724649185941
BY70-2                  
1 45857U 20042B   23354.58671078  .00046826  00000+0  35754-2 0  9997
2 45857  97.9227  76.3717 0006262 103.0687 257.1236 15.01784351187398
SALSAT                  
1 46495U 20068K   23354.41158841  .00007606  00000+0  46972-3 0  9992
2 46495  97.7945 304.9075 0013766 200.6740 159.3933 15.10107197177157
RADFXSAT-2 (AO-109)     
1 47311U 21002C   23354.52149122  .00073168  00000+0  10181-2 0  9991
2 47311  60.6756  54.6562 0027082  44.7840 315.5442 15.56049606163097
UVSQ-SAT                
1 47438U 21006AB  23354.14940694  .00024358  00000+0  77405-3 0  9996
2 47438  97.3588  49.2692 0008948 136.2115 223.9838 15.32586083161046
LEDSAT                  
1 49069U 21073D   23354.17368453  .00012044  00000+0  58262-3 0  9991
2 49069  97.4622  62.2066 0021538 191.5167 168.5577 15.18536556129085
XW-3 (CAS-9)            
1 50466U 21131B   23354.57775544  .00000851  00000+0  28850-3 0  9999
2 50466  98.5416  75.4742 0003269 311.6697  48.4210 14.39250537104168
TEVEL-3                 
1 50988U 22002E   23354.45076168  .00045983  00000+0  12870-2 0  9998
2 50988  97.4101  61.2237 0004996 298.2452  61.8288 15.36492693107240
TEVEL-8                 
1 50989U 22002F   23354.47868410  .00047394  00000+0  13299-2 0  9994
2 50989  97.4118  61.3306 0004962 295.9365  64.1368 15.36405204107244
TEVEL-5                 
1 50998U 22002Q   23354.46123410  .00049192  00000+0  13123-2 0  9991
2 50998  97.4095  61.9076 0005787 288.6404  71.4212 15.37963561107297
TEVEL-6                 
1 50999U 22002R   23354.46057482  .00049275  00000+0  13153-2 0  9992
2 50999  97.4093  61.8955 0005796 288.3339  71.7275 15.37944627107299
TEVEL-1                 
1 51013U 22002AF  23354.53281392  .00045334  00000+0  12718-2 0  9995
2 51013  97.4093  61.2127 0004811 297.0614  63.0138 15.36424217107257
TEVEL-7                 
1 51062U 22002CG  23354.47598637  .00046979  00000+0  13163-2 0  9996
2 51062  97.4112  61.2978 0004994 295.9247  64.1481 15.36453539107249
TEVEL-4                 
1 51063U 22002CH  23354.55684832  .00045477  00000+0  12793-2 0  9999
2 51063  97.4110  61.3353 0004883 295.7061  64.3678 15.36337895107252
TEVEL-2                 
1 51069U 22002CP  23354.45142798  .00045593  00000+0  12755-2 0  9991
2 51069  97.4098  61.1916 0004959 297.9402  62.1340 15.36509488107243
GREENCUBE               
1 53106U 22080B   23353.26709400 -.00000003  00000+0  00000+0 0  9993
2 53106  70.1425 255.3862 0008213 145.5074 214.6119  6.42557317 33647
CYCLOPS (RS29S)         
1 53373U 22096D   23354.55582725  .00134535  00000+0  14713-2 0  9994
2 53373  97.3980 265.3541 0003992  80.2600 279.9109 15.62861861 76525
MONITOR-1 (RS32S)       
1 53374U 22096E   23354.53657861  .00114468  00000+0  14216-2 0  9998
2 53374  97.3920 264.6306 0003654  92.9809 267.1865 15.59609985 76483
KUZBASS-300 (RS34S)     
1 53375U 22096F   23354.59704894  .00066161  00000+0  11348-2 0  9993
2 53375  97.3998 263.3301 0002992  95.7843 264.3750 15.50962800 76394
UTMN (RS23S)            
1 53376U 22096G   23354.56549068  .00070793  00000+0  11327-2 0  9994
2 53376  97.3976 263.6520 0002829  85.4245 274.7331 15.52895092 76411
MIET-AIS (RS28S)        
1 53377U 22096H   23354.53435095  .00056781  00000+0  10408-2 0  9996
2 53377  97.4015 262.9904 0002720  92.0279 268.1284 15.49113942 76367
KAI-1 (RS26S)           
1 53378U 22096J   23354.58930148  .00044742  00000+0  93356-3 0  9999
2 53378  97.4043 262.2149 0002339  89.8034 270.3483 15.45411522 76314
ISOI (RS19S)            
1 53381U 22096M   23354.55545381  .00051770  00000+0  90864-3 0  9991
2 53381  97.4018 263.5357 0004720  88.2226 271.9566 15.50366580 76405
CUBESX-HSE-2 (RS21S)    
1 53383U 22096P   23354.58947269  .00070692  00000+0  11386-2 0  9992
2 53383  97.3983 263.9442 0005841  88.3797 271.8125 15.52697045 76433
SIREN (RS30S)           
1 53384U 22096Q   23354.54855785  .00047935  00000+0  91760-3 0  9999
2 53384  97.4020 262.9879 0004884  87.7934 272.3876 15.47899078 76367
GEOSCAN-EDELVEIS (RS20S)
1 53385U 22096R   23354.57421619  .00163423  00000+0  14935-2 0  9997
2 53385  97.3958 266.4983 0006714  79.0753 281.1263 15.67295871 76630
CAS-5A (FO-118)         
1 54684U 22167C   23354.57904864  .00020309  00000+0  93546-3 0  9998
2 54684  97.5828 131.9356 0012584  53.9918 306.2481 15.20255701 56936
STRATOSAT-TK 1 (RS52S)  
1 57167U 23091B   23354.56072755  .00013075  00000+0  87774-3 0  9996
2 57167  97.6410  43.6683 0017322  17.2169 342.9642 15.06820723 26468
UMKA 1 (RS40S)          
1 57172U 23091G   23354.56950716  .00006311  00000+0  44598-3 0  9996
2 57172  97.6400  43.5027 0017931  16.9249 343.2572 15.05122175 26455
CUBESX-HSE 3 (RS42S)    
1 57178U 23091N   23354.56038226  .00008596  00000+0  59853-3 0  9992
2 57178  97.6445  43.6000 0018646  11.6812 348.4843 15.05556212 26455
MONITOR-4 (RS57S)       
1 57182U 23091S   23354.57439823  .00007088  00000+0  49732-3 0  9996
2 57182  97.6423  43.5561 0018927  12.6325 347.5372 15.05330625 26454
MONITOR-2 (RS39S)       
1 57184U 23091U   23354.56827604  .00005764  00000+0  40327-3 0  9995
2 57184  97.6433  43.7267 0014904   7.3303 352.8138 15.05574943 26463
SVYATOBOR 1 (RS60S)     
1 57187U 23091X   23354.52070016  .00006399  00000+0  43881-3 0  9994
2 57187  97.6442  43.7923 0014526   7.1500 352.9932 15.06288395 26469
VIZARD-METEO (RS38S)    
1 57189U 23091Z   23354.53100020  .00008170  00000+0  54838-3 0  9999
2 57189  97.6439  43.9150 0013465   6.3738 353.7658 15.07010026 26476
NANOZOND 1 (RS49S)      
1 57190U 23091AA  23354.53523859  .00011698  00000+0  76170-3 0  9992
2 57190  97.6415  44.0012 0012195  12.4613 347.6914 15.08041219 26487
POLYTECH-UNIVERSE 3 (R*)
1 57191U 23091AB  23354.55866352  .00005857  00000+0  41053-3 0  9995
2 57191  97.6406  43.5125 0020921  22.9110 337.3045 15.05414707 26452
UTMN 2 (RS27S)          
1 57203U 23091AP  23354.54715596  .00007800  00000+0  52696-3 0  9996
2 57203  97.6440  43.8925 0013811   5.7025 354.4357 15.06778241 26474
ARCCUBE 1 (RS25S)       
1 57205U 23091AR  23354.52461525  .00013037  00000+0  84111-3 0  9992
2 57205  97.6392  43.9759 0012537  13.4020 346.7539 15.08349787 26481
KUZGTU 1 (RS47S)        
1 57217U 23091AV  23354.55885289  .00008198  00000+0  57165-3 0  9996
2 57217  97.6421  43.5459 0018577  13.0784 347.0920 15.05518099 26459
